<?xml version="1.0" encoding="UTF-8"?>
<ndm xmlns:xsi="http://www.w3.org/2001/XMLSchema-instance" xsi:noNamespaceSchemaLocation="https://sanaregistry.org/r/ndmxml_unqualified/ndmxml-2.0.0-master-2.0.xsd">
<omm id="CCSDS_OMM_VERS" version="2.0">
<header><CREATION_DATE/><ORIGINATOR/></header><body><segment><metadata><OBJECT_NAME>ORBCOMM FM05</OBJECT_NAME><OBJECT_ID>1997-084F</OBJECT_ID><CENTER_NAME>EARTH</CENTER_NAME><REF_FRAME>TEME</REF_FRAME><TIME_SYSTEM>UTC</TIME_SYSTEM><MEAN_ELEMENT_THEORY>SGP4</MEAN_ELEMENT_THEORY></metadata><data><meanElements><EPOCH>2025-10-12T22:26:39.033600</EPOCH><MEAN_MOTION>14.46363180</MEAN_MOTION><ECCENTRICITY>.00026332</ECCENTRICITY><INCLINATION>45.0129</INCLINATION><RA_OF_ASC_NODE>162.5479</RA_OF_ASC_NODE><ARG_OF_PERICENTER>71.1200</ARG_OF_PERICENTER><MEAN_ANOMALY>288.9937</MEAN_ANOMALY></meanElements><tleParameters><EPHEMERIS_TYPE>0</EPHEMERIS_TYPE><CLASSIFICATION_TYPE>U</CLASSIFICATION_TYPE><NORAD_CAT_ID>25117</NORAD_CAT_ID><ELEMENT_SET_NO>999</ELEMENT_SET_NO><REV_AT_EPOCH>45765</REV_AT_EPOCH><BSTAR>.62853045E-3</BSTAR><MEAN_MOTION_DOT>.2133E-4</MEAN_MOTION_DOT><MEAN_MOTION_DDOT>0</MEAN_MOTION_DDOT></tleParameters></data></segment></body></omm>
<omm id="CCSDS_OMM_VERS" version="2.0">
<header><CREATION_DATE/><ORIGINATOR/></header><body><segment><metadata><OBJECT_NAME>ORBCOMM FM06</OBJECT_NAME><OBJECT_ID>1997-084G</OBJECT_ID><CENTER_NAME>EARTH</CENTER_NAME><REF_FRAME>TEME</REF_FRAME><TIME_SYSTEM>UTC</TIME_SYSTEM><MEAN_ELEMENT_THEORY>SGP4</MEAN_ELEMENT_THEORY></metadata><data><meanElements><EPOCH>2025-10-12T22:02:30.909120</EPOCH><MEAN_MOTION>14.46519766</MEAN_MOTION><ECCENTRICITY>.00016632</ECCENTRICITY><INCLINATION>45.0122</INCLINATION><RA_OF_ASC_NODE>162.2305</RA_OF_ASC_NODE><ARG_OF_PERICENTER>59.8433</ARG_OF_PERICENTER><MEAN_ANOMALY>314.8862</MEAN_ANOMALY></meanElements><tleParameters><EPHEMERIS_TYPE>0</EPHEMERIS_TYPE><CLASSIFICATION_TYPE>U</CLASSIFICATION_TYPE><NORAD_CAT_ID>25118</NORAD_CAT_ID><ELEMENT_SET_NO>999</ELEMENT_SET_NO><REV_AT_EPOCH>45857</REV_AT_EPOCH><BSTAR>.63484209E-3</BSTAR><MEAN_MOTION_DOT>.2163E-4</MEAN_MOTION_DOT><MEAN_MOTION_DDOT>0</MEAN_MOTION_DDOT></tleParameters></data></segment></body></omm>
<omm id="CCSDS_OMM_VERS" version="2.0">
<header><CREATION_DATE/><ORIGINATOR/></header><body><segment><metadata><OBJECT_NAME>ORBCOMM FM07</OBJECT_NAME><OBJECT_ID>1997-084H</OBJECT_ID><CENTER_NAME>EARTH</CENTER_NAME><REF_FRAME>TEME</REF_FRAME><TIME_SYSTEM>UTC</TIME_SYSTEM><MEAN_ELEMENT_THEORY>SGP4</MEAN_ELEMENT_THEORY></metadata><data><meanElements><EPOCH>2025-10-12T22:17:13.895520</EPOCH><MEAN_MOTION>14.46535939</MEAN_MOTION><ECCENTRICITY>.00034972</ECCENTRICITY><INCLINATION>45.0117</INCLINATION><RA_OF_ASC_NODE>162.9411</RA_OF_ASC_NODE><ARG_OF_PERICENTER>71.9322</ARG_OF_PERICENTER><MEAN_ANOMALY>288.1910</MEAN_ANOMALY></meanElements><tleParameters><EPHEMERIS_TYPE>0</EPHEMERIS_TYPE><CLASSIFICATION_TYPE>U</CLASSIFICATION_TYPE><NORAD_CAT_ID>25119</NORAD_CAT_ID><ELEMENT_SET_NO>999</ELEMENT_SET_NO><REV_AT_EPOCH>45856</REV_AT_EPOCH><BSTAR>.65722221E-3</BSTAR><MEAN_MOTION_DOT>.2246E-4</MEAN_MOTION_DOT><MEAN_MOTION_DDOT>0</MEAN_MOTION_DDOT></tleParameters></data></segment></body></omm>
<omm id="CCSDS_OMM_VERS" version="2.0">
<header><CREATION_DATE/><ORIGINATOR/></header><body><segment><metadata><OBJECT_NAME>ORBCOMM FM03</OBJECT_NAME><OBJECT_ID>1998-007B</OBJECT_ID><CENTER_NAME>EARTH</CENTER_NAME><REF_FRAME>TEME</REF_FRAME><TIME_SYSTEM>UTC</TIME_SYSTEM><MEAN_ELEMENT_THEORY>SGP4</MEAN_ELEMENT_THEORY></metadata><data><meanElements><EPOCH>2025-10-12T04:46:02.939232</EPOCH><MEAN_MOTION>14.34790464</MEAN_MOTION><ECCENTRICITY>.00428195</ECCENTRICITY><INCLINATION>107.9630</INCLINATION><RA_OF_ASC_NODE>16.0125</RA_OF_ASC_NODE><ARG_OF_PERICENTER>42.5440</ARG_OF_PERICENTER><MEAN_ANOMALY>317.9005</MEAN_ANOMALY></meanElements><tleParameters><EPHEMERIS_TYPE>0</EPHEMERIS_TYPE><CLASSIFICATION_TYPE>U</CLASSIFICATION_TYPE><NORAD_CAT_ID>25158</NORAD_CAT_ID><ELEMENT_SET_NO>999</ELEMENT_SET_NO><REV_AT_EPOCH>44082</REV_AT_EPOCH><BSTAR>.51482141E-3</BSTAR><MEAN_MOTION_DOT>.1345E-4</MEAN_MOTION_DOT><MEAN_MOTION_DDOT>0</MEAN_MOTION_DDOT></tleParameters></data></segment></body></omm>
<omm id="CCSDS_OMM_VERS" version="2.0">
<header><CREATION_DATE/><ORIGINATOR/></header><body><segment><metadata><OBJECT_NAME>ORBCOMM FM04</OBJECT_NAME><OBJECT_ID>1998-007C</OBJECT_ID><CENTER_NAME>EARTH</CENTER_NAME><REF_FRAME>TEME</REF_FRAME><TIME_SYSTEM>UTC</TIME_SYSTEM><MEAN_ELEMENT_THEORY>SGP4</MEAN_ELEMENT_THEORY></metadata><data><meanElements><EPOCH>2025-10-12T03:54:29.600640</EPOCH><MEAN_MOTION>14.35033859</MEAN_MOTION><ECCENTRICITY>.00386449</ECCENTRICITY><INCLINATION>107.9619</INCLINATION><RA_OF_ASC_NODE>19.2374</RA_OF_ASC_NODE><ARG_OF_PERICENTER>39.6258</ARG_OF_PERICENTER><MEAN_ANOMALY>320.7696</MEAN_ANOMALY></meanElements><tleParameters><EPHEMERIS_TYPE>0</EPHEMERIS_TYPE><CLASSIFICATION_TYPE>U</CLASSIFICATION_TYPE><NORAD_CAT_ID>25159</NORAD_CAT_ID><ELEMENT_SET_NO>999</ELEMENT_SET_NO><REV_AT_EPOCH>44100</REV_AT_EPOCH><BSTAR>.49030942E-3</BSTAR><MEAN_MOTION_DOT>.1279E-4</MEAN_MOTION_DOT><MEAN_MOTION_DDOT>0</MEAN_MOTION_DDOT></tleParameters></data></segment></body></omm>
<omm id="CCSDS_OMM_VERS" version="2.0">
<header><CREATION_DATE/><ORIGINATOR/></header><body><segment><metadata><OBJECT_NAME>ORBCOMM FM17</OBJECT_NAME><OBJECT_ID>1998-046A</OBJECT_ID><CENTER_NAME>EARTH</CENTER_NAME><REF_FRAME>TEME</REF_FRAME><TIME_SYSTEM>UTC</TIME_SYSTEM><MEAN_ELEMENT_THEORY>SGP4</MEAN_ELEMENT_THEORY></metadata><data><meanElements><EPOCH>2025-10-12T19:54:52.229952</EPOCH><MEAN_MOTION>14.35340455</MEAN_MOTION><ECCENTRICITY>.00027403</ECCENTRICITY><INCLINATION>44.9944</INCLINATION><RA_OF_ASC_NODE>62.2997</RA_OF_ASC_NODE><ARG_OF_PERICENTER>110.3124</ARG_OF_PERICENTER><MEAN_ANOMALY>249.8018</MEAN_ANOMALY></meanElements><tleParameters><EPHEMERIS_TYPE>0</EPHEMERIS_TYPE><CLASSIFICATION_TYPE>U</CLASSIFICATION_TYPE><NORAD_CAT_ID>25413</NORAD_CAT_ID><ELEMENT_SET_NO>999</ELEMENT_SET_NO><REV_AT_EPOCH>42007</REV_AT_EPOCH><BSTAR>.50549408E-3</BSTAR><MEAN_MOTION_DOT>.1321E-4</MEAN_MOTION_DOT><MEAN_MOTION_DDOT>0</MEAN_MOTION_DDOT></tleParameters></data></segment></body></omm>
<omm id="CCSDS_OMM_VERS" version="2.0">
<header><CREATION_DATE/><ORIGINATOR/></header><body><segment><metadata><OBJECT_NAME>ORBCOMM FM18</OBJECT_NAME><OBJECT_ID>1998-046B</OBJECT_ID><CENTER_NAME>EARTH</CENTER_NAME><REF_FRAME>TEME</REF_FRAME><TIME_SYSTEM>UTC</TIME_SYSTEM><MEAN_ELEMENT_THEORY>SGP4</MEAN_ELEMENT_THEORY></metadata><data><meanElements><EPOCH>2025-10-12T20:13:25.728096</EPOCH><MEAN_MOTION>14.38895558</MEAN_MOTION><ECCENTRICITY>.00049604</ECCENTRICITY><INCLINATION>44.9941</INCLINATION><RA_OF_ASC_NODE>336.4634</RA_OF_ASC_NODE><ARG_OF_PERICENTER>184.3328</ARG_OF_PERICENTER><MEAN_ANOMALY>175.7478</MEAN_ANOMALY></meanElements><tleParameters><EPHEMERIS_TYPE>0</EPHEMERIS_TYPE><CLASSIFICATION_TYPE>U</CLASSIFICATION_TYPE><NORAD_CAT_ID>25414</NORAD_CAT_ID><ELEMENT_SET_NO>999</ELEMENT_SET_NO><REV_AT_EPOCH>42119</REV_AT_EPOCH><BSTAR>.54132946E-3</BSTAR><MEAN_MOTION_DOT>.1541E-4</MEAN_MOTION_DOT><MEAN_MOTION_DDOT>0</MEAN_MOTION_DDOT></tleParameters></data></segment></body></omm>
<omm id="CCSDS_OMM_VERS" version="2.0">
<header><CREATION_DATE/><ORIGINATOR/></header><body><segment><metadata><OBJECT_NAME>ORBCOMM FM19</OBJECT_NAME><OBJECT_ID>1998-046C</OBJECT_ID><CENTER_NAME>EARTH</CENTER_NAME><REF_FRAME>TEME</REF_FRAME><TIME_SYSTEM>UTC</TIME_SYSTEM><MEAN_ELEMENT_THEORY>SGP4</MEAN_ELEMENT_THEORY></metadata><data><meanElements><EPOCH>2025-10-12T21:46:18.062400</EPOCH><MEAN_MOTION>14.38712963</MEAN_MOTION><ECCENTRICITY>.00037492</ECCENTRICITY><INCLINATION>44.9953</INCLINATION><RA_OF_ASC_NODE>338.3386</RA_OF_ASC_NODE><ARG_OF_PERICENTER>188.2044</ARG_OF_PERICENTER><MEAN_ANOMALY>341.7671</MEAN_ANOMALY></meanElements><tleParameters><EPHEMERIS_TYPE>0</EPHEMERIS_TYPE><CLASSIFICATION_TYPE>U</CLASSIFICATION_TYPE><NORAD_CAT_ID>25415</NORAD_CAT_ID><ELEMENT_SET_NO>999</ELEMENT_SET_NO><REV_AT_EPOCH>42115</REV_AT_EPOCH><BSTAR>.58035658E-3</BSTAR><MEAN_MOTION_DOT>.1655E-4</MEAN_MOTION_DOT><MEAN_MOTION_DDOT>0</MEAN_MOTION_DDOT></tleParameters></data></segment></body></omm>

</ndm>
