ORBCOMM FM05            
1 25117U 97084F   25285.93517400  .00002133  00000+0  62853-3 0  9990
2 25117  45.0129 162.5479 0002633  71.1200 288.9937 14.46363180457657
ORBCOMM FM06            
1 25118U 97084G   25285.91841330  .00002163  00000+0  63484-3 0  9995
2 25118  45.0122 162.2305 0001663  59.8433 314.8862 14.46519766458570
ORBCOMM FM07            
1 25119U 97084H   25285.92863305  .00002246  00000+0  65722-3 0  9992
2 25119  45.0117 162.9411 0003497  71.9322 288.1910 14.46535939458565
ORBCOMM FM03            
1 25158U 98007B   25285.19864513  .00001345  00000+0  51482-3 0  9999
2 25158 107.9630  16.0125 0042819  42.5440 317.9005 14.34790464440822
ORBCOMM FM04            
1 25159U 98007C   25285.16284260  .00001279  00000+0  49031-3 0  9995
2 25159 107.9619  19.2374 0038644  39.6258 320.7696 14.35033859441004
ORBCOMM FM17            
1 25413U 98046A   25285.82977118  .00001321  00000+0  50549-3 0  9999
2 25413  44.9944  62.2997 0002740 110.3124 249.8018 14.35340455420070
ORBCOMM FM18            
1 25414U 98046B   25285.84265889  .00001541  00000+0  54133-3 0  9994
2 25414  44.9941 336.4634 0004960 184.3328 175.7478 14.38895558421198
ORBCOMM FM19            
1 25415U 98046C   25285.90715350  .00001655  00000+0  58036-3 0  9997
2 25415  44.9953 338.3386 0003749 188.2044 341.7671 14.38712963421153
